{
    "links": {
        "self": "http://www.neowsapp.com/rest/v1/neo/3836912?api_key=iIulBulltgU6a56xZRHN4H3l9WmuAYTsLGpBGhQ2"
    },
    "id": "3836912",
    "neo_reference_id": "3836912",
    "name": "(2018 XC5)",
    "designation": "2018 XC5",
    "nasa_jpl_url": "http://ssd.jpl.nasa.gov/sbdb.cgi?sstr=3836912",
    "absolute_magnitude_h": 24.2,
    "estimated_diameter": {
        "kilometers": {
            "estimated_diameter_min": 0.0384197891,
            "estimated_diameter_max": 0.0859092601
        },
        "meters": {
            "estimated_diameter_min": 38.4197891064,
            "estimated_diameter_max": 85.9092601232
        },
        "miles": {
            "estimated_diameter_min": 0.0238729428,
            "estimated_diameter_max": 0.0533815229
        },
        "feet": {
            "estimated_diameter_min": 126.0491808919,
            "estimated_diameter_max": 281.8545369825
        }
    },
    "is_potentially_hazardous_asteroid": false,
    "close_approach_data": [
        {
            "close_approach_date": "2016-12-29",
            "close_approach_date_full": "2016-Dec-29 00:43",
            "epoch_date_close_approach": 1482972180000,
            "relative_velocity": {
                "kilometers_per_second": "14.558952525",
                "kilometers_per_hour": "52412.22909",
                "miles_per_hour": "32566.9209031725"
            },
            "miss_distance": {
                "astronomical": "0.4208665481",
                "lunar": "163.7170872109",
                "kilometers": "62960739.150012547",
                "miles": "39121989.1970732686"
            },
            "orbiting_body": "Earth"
        },
        {
            "close_approach_date": "2018-12-17",
            "close_approach_date_full": "2018-Dec-17 03:42",
            "epoch_date_close_approach": 1545018120000,
            "relative_velocity": {
                "kilometers_per_second": "11.923736669",
                "kilometers_per_hour": "42925.4520085498",
                "miles_per_hour": "26672.2065549792"
            },
            "miss_distance": {
                "astronomical": "0.1009618943",
                "lunar": "39.2741768827",
                "kilometers": "15103684.338445141",
                "miles": "9384994.2599433058"
            },
            "orbiting_body": "Earth"
        }
    ],
    "orbital_data": {
        "orbit_id": "2",
        "orbit_determination_date": "2019-01-22 07:39:36",
        "first_observation_date": "2018-12-14",
        "last_observation_date": "2018-12-16",
        "data_arc_in_days": 2,
        "observations_used": 14,
        "orbit_uncertainty": "8",
        "minimum_orbit_intersection": ".08988",
        "jupiter_tisserand_invariant": "4.328",
        "epoch_osculation": "2458467.5",
        "eccentricity": ".3128435556113722",
        "semi_major_axis": "1.550135696372137",
        "inclination": "20.55086973385959",
        "ascending_node_longitude": "264.2585783339922",
        "orbital_period": "704.9413774200825",
        "perihelion_distance": "1.065185733438967",
        "perihelion_argument": "196.1734690684197",
        "aphelion_distance": "2.035085659305306",
        "perihelion_time": "2458482.146672713201",
        "mean_anomaly": "352.5202260136161",
        "mean_motion": ".5106807623032631",
        "equinox": "J2000",
        "orbit_class": {
            "orbit_class_type": "AMO",
            "orbit_class_description": "Near-Earth asteroid orbits similar to that of 1221 Amor",
            "orbit_class_range": "1.017 AU < q (perihelion) < 1.3 AU"
        }
    },
    "is_sentry_object": false
}